ONEWEB-0664             
1 55824U 23029AE  25311.29983177  .00000061  00000+0  11899-3 0  9995
2 55824  87.9182 318.7535 0001570 100.2858 259.8452 13.20771548131851
ONEWEB-0665             
1 55825U 23029AF  25311.04668429  .00000175  00000+0  43801-3 0  9993
2 55825  87.9002 333.9920 0002060 101.5360 258.6001 13.14502876130223
ONEWEB-0666             
1 55826U 23029AG  25311.29351261  .00000073  00000+0  14768-3 0  9991
2 55826  87.9183 318.7431 0001850  68.6805 291.4526 13.20772107131866
ONEWEB-0667             
1 55827U 23029AH  25311.05991571  .00000086  00000+0  18033-3 0  9993
2 55827  87.9193 318.7199 0001865  97.9325 262.2020 13.20771469131828
ONEWEB-0669             
1 55828U 23029AJ  25311.05519198  .00000077  00000+0  15767-3 0  9996
2 55828  87.9181 318.7583 0001174  86.9049 273.2218 13.20773280131821
ONEWEB-0670             
1 55829U 23029AK  25311.10058669 -.00000208  00000+0 -59509-3 0  9994
2 55829  87.9003 334.0009 0001705 105.8436 254.2882 13.14504344130258
ONEWEB-0671             
1 55830U 23029AL  25311.14774837  .00000114  00000+0  25322-3 0  9992
2 55830  87.9227 349.1623 0002071 102.4442 257.6923 13.19726783129613
ONEWEB-0672             
1 55831U 23029AM  25311.27773853  .00000047  00000+0  83685-4 0  9996
2 55831  87.9183 318.6947 0001764  84.4300 275.7035 13.20772879131858
ONEWEB-0673             
1 55832U 23029AN  25311.12406143  .00000054  00000+0  10373-3 0  9997
2 55832  87.9244 349.1411 0002068  96.7549 263.3819 13.19727015129615
ONEWEB-0674             
1 55833U 23029AP  25311.06887360  .00000197  00000+0  49655-3 0  9998
2 55833  87.8998 333.9872 0001631 109.6131 250.5174 13.14500439130235
ONEWEB-0675             
1 55834U 23029AQ  25311.13984826  .00000010  00000+0 -83581-5 0  9995
2 55834  87.9222 349.1729 0002017  88.0895 272.0469 13.19725345129631
ONEWEB-0720             
1 55835U 23029AR  25311.13195599  .00000137  00000+0  31044-3 0  9991
2 55835  87.9223 349.1721 0002220 102.5645 257.5736 13.19726428129555
ONEWEB-0537             
1 56046U 23043A   25311.28346326  .00000008  00000+0 -12842-4 0  9998
2 56046  87.9009 272.9647 0001875  75.2034 284.9305 13.16595428129765
ONEWEB-0538             
1 56047U 23043B   25311.27714247 -.00000041  00000+0 -14124-3 0  9991
2 56047  87.9000 272.9725 0002124  78.5468 281.5901 13.16594518129774
ONEWEB-0546             
1 56048U 23043C   25311.26446330  .00000024  00000+0  28917-4 0  9991
2 56048  87.9011 272.9628 0001783  61.1017 299.0293 13.16595691129767
ONEWEB-0547             
1 56049U 23043D   25310.47435664 -.00000006  00000+0 -45291-4 0  9998
2 56049  87.9176 288.4017 0002043  87.8655 272.2713 13.21826187128804
