[{"OBJECT_NAME":"ONEWEB-0664","OBJECT_ID":"2023-029AE","EPOCH":"2025-11-07T07:11:45.464928","MEAN_MOTION":13.20771548,"ECCENTRICITY":0.00015707,"INCLINATION":87.9182,"RA_OF_ASC_NODE":318.7535,"ARG_OF_PERICENTER":100.2858,"MEAN_ANOMALY":259.8452,"EPHEMERIS_TYPE":0,"CLASSIFICATION_TYPE":"U","NORAD_CAT_ID":55824,"ELEMENT_SET_NO":999,"REV_AT_EPOCH":13185,"BSTAR":0.00011898688,"MEAN_MOTION_DOT":6.1e-7,"MEAN_MOTION_DDOT":0},{"OBJECT_NAME":"ONEWEB-0665","OBJECT_ID":"2023-029AF","EPOCH":"2025-11-07T01:07:13.522656","MEAN_MOTION":13.14502876,"ECCENTRICITY":0.00020605,"INCLINATION":87.9002,"RA_OF_ASC_NODE":333.992,"ARG_OF_PERICENTER":101.536,"MEAN_ANOMALY":258.6001,"EPHEMERIS_TYPE":0,"CLASSIFICATION_TYPE":"U","NORAD_CAT_ID":55825,"ELEMENT_SET_NO":999,"REV_AT_EPOCH":13022,"BSTAR":0.00043801047,"MEAN_MOTION_DOT":1.75e-6,"MEAN_MOTION_DDOT":0},{"OBJECT_NAME":"ONEWEB-0666","OBJECT_ID":"2023-029AG","EPOCH":"2025-11-07T07:02:39.489504","MEAN_MOTION":13.20772107,"ECCENTRICITY":0.00018502,"INCLINATION":87.9183,"RA_OF_ASC_NODE":318.7431,"ARG_OF_PERICENTER":68.6805,"MEAN_ANOMALY":291.4526,"EPHEMERIS_TYPE":0,"CLASSIFICATION_TYPE":"U","NORAD_CAT_ID":55826,"ELEMENT_SET_NO":999,"REV_AT_EPOCH":13186,"BSTAR":0.00014767924,"MEAN_MOTION_DOT":7.3e-7,"MEAN_MOTION_DDOT":0},{"OBJECT_NAME":"ONEWEB-0667","OBJECT_ID":"2023-029AH","EPOCH":"2025-11-07T01:26:16.717344","MEAN_MOTION":13.20771469,"ECCENTRICITY":0.0001865,"INCLINATION":87.9193,"RA_OF_ASC_NODE":318.7199,"ARG_OF_PERICENTER":97.9325,"MEAN_ANOMALY":262.202,"EPHEMERIS_TYPE":0,"CLASSIFICATION_TYPE":"U","NORAD_CAT_ID":55827,"ELEMENT_SET_NO":999,"REV_AT_EPOCH":13182,"BSTAR":0.00018033417,"MEAN_MOTION_DOT":8.6e-7,"MEAN_MOTION_DDOT":0},{"OBJECT_NAME":"ONEWEB-0669","OBJECT_ID":"2023-029AJ","EPOCH":"2025-11-07T01:19:28.587072","MEAN_MOTION":13.2077328,"ECCENTRICITY":0.00011748,"INCLINATION":87.9181,"RA_OF_ASC_NODE":318.7583,"ARG_OF_PERICENTER":86.9049,"MEAN_ANOMALY":273.2218,"EPHEMERIS_TYPE":0,"CLASSIFICATION_TYPE":"U","NORAD_CAT_ID":55828,"ELEMENT_SET_NO":999,"REV_AT_EPOCH":13182,"BSTAR":0.00015766622,"MEAN_MOTION_DOT":7.7e-7,"MEAN_MOTION_DDOT":0},{"OBJECT_NAME":"ONEWEB-0670","OBJECT_ID":"2023-029AK","EPOCH":"2025-11-07T02:24:50.690016","MEAN_MOTION":13.14504344,"ECCENTRICITY":0.00017059,"INCLINATION":87.9003,"RA_OF_ASC_NODE":334.0009,"ARG_OF_PERICENTER":105.8436,"MEAN_ANOMALY":254.2882,"EPHEMERIS_TYPE":0,"CLASSIFICATION_TYPE":"U","NORAD_CAT_ID":55829,"ELEMENT_SET_NO":999,"REV_AT_EPOCH":13025,"BSTAR":-0.00059508818,"MEAN_MOTION_DOT":-2.08e-6,"MEAN_MOTION_DDOT":0},{"OBJECT_NAME":"ONEWEB-0671","OBJECT_ID":"2023-029AL","EPOCH":"2025-11-07T03:32:45.459168","MEAN_MOTION":13.19726783,"ECCENTRICITY":0.00020716,"INCLINATION":87.9227,"RA_OF_ASC_NODE":349.1623,"ARG_OF_PERICENTER":102.4442,"MEAN_ANOMALY":257.6923,"EPHEMERIS_TYPE":0,"CLASSIFICATION_TYPE":"U","NORAD_CAT_ID":55830,"ELEMENT_SET_NO":999,"REV_AT_EPOCH":12961,"BSTAR":0.00025322277,"MEAN_MOTION_DOT":1.14e-6,"MEAN_MOTION_DDOT":0},{"OBJECT_NAME":"ONEWEB-0672","OBJECT_ID":"2023-029AM","EPOCH":"2025-11-07T06:39:56.608992","MEAN_MOTION":13.20772879,"ECCENTRICITY":0.00017648,"INCLINATION":87.9183,"RA_OF_ASC_NODE":318.6947,"ARG_OF_PERICENTER":84.43,"MEAN_ANOMALY":275.7035,"EPHEMERIS_TYPE":0,"CLASSIFICATION_TYPE":"U","NORAD_CAT_ID":55831,"ELEMENT_SET_NO":999,"REV_AT_EPOCH":13185,"BSTAR":8.3685271e-5,"MEAN_MOTION_DOT":4.7e-7,"MEAN_MOTION_DDOT":0},{"OBJECT_NAME":"ONEWEB-0673","OBJECT_ID":"2023-029AN","EPOCH":"2025-11-07T02:58:38.907552","MEAN_MOTION":13.19727015,"ECCENTRICITY":0.00020685,"INCLINATION":87.9244,"RA_OF_ASC_NODE":349.1411,"ARG_OF_PERICENTER":96.7549,"MEAN_ANOMALY":263.3819,"EPHEMERIS_TYPE":0,"CLASSIFICATION_TYPE":"U","NORAD_CAT_ID":55832,"ELEMENT_SET_NO":999,"REV_AT_EPOCH":12961,"BSTAR":0.00010372782,"MEAN_MOTION_DOT":5.4e-7,"MEAN_MOTION_DDOT":0},{"OBJECT_NAME":"ONEWEB-0674","OBJECT_ID":"2023-029AP","EPOCH":"2025-11-07T01:39:10.679040","MEAN_MOTION":13.14500439,"ECCENTRICITY":0.00016311,"INCLINATION":87.8998,"RA_OF_ASC_NODE":333.9872,"ARG_OF_PERICENTER":109.6131,"MEAN_ANOMALY":250.5174,"EPHEMERIS_TYPE":0,"CLASSIFICATION_TYPE":"U","NORAD_CAT_ID":55833,"ELEMENT_SET_NO":999,"REV_AT_EPOCH":13023,"BSTAR":0.00049654632,"MEAN_MOTION_DOT":1.97e-6,"MEAN_MOTION_DDOT":0},{"OBJECT_NAME":"ONEWEB-0675","OBJECT_ID":"2023-029AQ","EPOCH":"2025-11-07T03:21:22.889664","MEAN_MOTION":13.19725345,"ECCENTRICITY":0.00020176,"INCLINATION":87.9222,"RA_OF_ASC_NODE":349.1729,"ARG_OF_PERICENTER":88.0895,"MEAN_ANOMALY":272.0469,"EPHEMERIS_TYPE":0,"CLASSIFICATION_TYPE":"U","NORAD_CAT_ID":55834,"ELEMENT_SET_NO":999,"REV_AT_EPOCH":12963,"BSTAR":-8.358057e-6,"MEAN_MOTION_DOT":1.0e-7,"MEAN_MOTION_DDOT":0},{"OBJECT_NAME":"ONEWEB-0720","OBJECT_ID":"2023-029AR","EPOCH":"2025-11-07T03:10:00.997536","MEAN_MOTION":13.19726428,"ECCENTRICITY":0.000222,"INCLINATION":87.9223,"RA_OF_ASC_NODE":349.1721,"ARG_OF_PERICENTER":102.5645,"MEAN_ANOMALY":257.5736,"EPHEMERIS_TYPE":0,"CLASSIFICATION_TYPE":"U","NORAD_CAT_ID":55835,"ELEMENT_SET_NO":999,"REV_AT_EPOCH":12955,"BSTAR":0.00031043521,"MEAN_MOTION_DOT":1.37e-6,"MEAN_MOTION_DDOT":0},{"OBJECT_NAME":"ONEWEB-0537","OBJECT_ID":"2023-043A","EPOCH":"2025-11-07T06:48:11.225664","MEAN_MOTION":13.16595428,"ECCENTRICITY":0.00018755,"INCLINATION":87.9009,"RA_OF_ASC_NODE":272.9647,"ARG_OF_PERICENTER":75.2034,"MEAN_ANOMALY":284.9305,"EPHEMERIS_TYPE":0,"CLASSIFICATION_TYPE":"U","NORAD_CAT_ID":56046,"ELEMENT_SET_NO":999,"REV_AT_EPOCH":12976,"BSTAR":-1.2842274e-5,"MEAN_MOTION_DOT":8.0e-8,"MEAN_MOTION_DDOT":0},{"OBJECT_NAME":"ONEWEB-0538","OBJECT_ID":"2023-043B","EPOCH":"2025-11-07T06:39:05.109408","MEAN_MOTION":13.16594518,"ECCENTRICITY":0.00021248,"INCLINATION":87.9,"RA_OF_ASC_NODE":272.9725,"ARG_OF_PERICENTER":78.5468,"MEAN_ANOMALY":281.5901,"EPHEMERIS_TYPE":0,"CLASSIFICATION_TYPE":"U","NORAD_CAT_ID":56047,"ELEMENT_SET_NO":999,"REV_AT_EPOCH":12977,"BSTAR":-0.00014124228,"MEAN_MOTION_DOT":-4.1e-7,"MEAN_MOTION_DDOT":0},{"OBJECT_NAME":"ONEWEB-0546","OBJECT_ID":"2023-043C","EPOCH":"2025-11-07T06:20:49.629120","MEAN_MOTION":13.16595691,"ECCENTRICITY":0.00017831,"INCLINATION":87.9011,"RA_OF_ASC_NODE":272.9628,"ARG_OF_PERICENTER":61.1017,"MEAN_ANOMALY":299.0293,"EPHEMERIS_TYPE":0,"CLASSIFICATION_TYPE":"U","NORAD_CAT_ID":56048,"ELEMENT_SET_NO":999,"REV_AT_EPOCH":12976,"BSTAR":2.8916542e-5,"MEAN_MOTION_DOT":2.4e-7,"MEAN_MOTION_DDOT":0},{"OBJECT_NAME":"ONEWEB-0547","OBJECT_ID":"2023-043D","EPOCH":"2025-11-06T11:23:04.413696","MEAN_MOTION":13.21826187,"ECCENTRICITY":0.0002043,"INCLINATION":87.9176,"RA_OF_ASC_NODE":288.4017,"ARG_OF_PERICENTER":87.8655,"MEAN_ANOMALY":272.2713,"EPHEMERIS_TYPE":0,"CLASSIFICATION_TYPE":"U","NORAD_CAT_ID":56049,"ELEMENT_SET_NO":999,"REV_AT_EPOCH":12880,"BSTAR":-4.5290682e-5,"MEAN_MOTION_DOT":-6.0e-8,"MEAN_MOTION_DDOT":0}]
